H1 CPF 01  gfz 2022 01 19 13  5192 tandemx   
H2 1003001  6202 36605    2022 01 19 12 59 42 2022 01 24 00 00 42   120 1 1  0 0 0
H9
10 0 59601  52542.000000  0    3205413.968   2896107.766   5356086.054
10 0 59601  52662.000000  0    2807922.640   2241311.212   5867528.146
10 0 59601  52782.000000  0    2349673.409   1554871.549   6275801.665
10 0 59601  52902.000000  0    1838241.173    849779.594   6573767.472
10 0 59601  53022.000000  0    1282349.615    139198.989   6756220.607
10 0 59601  53142.000000  0     691720.434   -563778.183   6819976.133
10 0 59601  53262.000000  0      76902.738  -1246372.738   6763922.399
10 0 59601  53382.000000  0    -550915.616  -1896350.564   6589038.737
10 0 59601  53502.000000  0   -1180111.453  -2502241.868   6298378.563
10 0 59601  53622.000000  0   -1798839.632  -3053543.409   5897017.887
10 0 59601  53742.000000  0   -2395253.743  -3540901.802   5391973.242
10 0 59601  53862.000000  0   -2957734.360  -3956276.621   4792087.194
10 0 59601  53982.000000  0   -3475119.766  -4293078.505   4107879.134
10 0 59601  54102.000000  0   -3936931.088  -4546278.511   3351363.766
10 0 59601  54222.000000  0   -4333587.394  -4712487.369   2535841.739
10 0 59601  54342.000000  0   -4656607.765  -4790003.253   1675665.382
10 0 59601  54462.000000  0   -4898794.982  -4778825.148    785981.700
10 0 59601  54582.000000  0   -5054395.286  -4680631.277   -117540.894
10 0 59601  54702.000000  0   -5119230.585  -4498723.412  -1018996.856
10 0 59601  54822.000000  0   -5090799.013  -4237938.035  -1902533.269
10 0 59601  54942.000000  0   -4968340.444  -3904525.730  -2752637.612
10 0 59601  55062.000000  0   -4752865.834  -3506003.292  -3554415.478
10 0 59601  55182.000000  0   -4447151.543  -3050983.716  -4293853.328
10 0 59601  55302.000000  0   -4055699.045  -2548988.028  -4958062.175
10 0 59601  55422.000000  0   -3584661.033  -2010243.532  -5535497.123
10 0 59601  55542.000000  0   -3041737.006  -1445473.859  -6016149.737
10 0 59601  55662.000000  0   -2436041.115   -865684.972  -6391711.304
10 0 59601  55782.000000  0   -1777944.299   -281951.871  -6655705.288
10 0 59601  55902.000000  0   -1078894.532    294789.660  -6803586.898
10 0 59601  56022.000000  0    -351220.388    853942.436  -6832812.062
10 0 59601  56142.000000  0     392081.711   1385437.752  -6742876.466
10 0 59601  56262.000000  0    1137572.832   1879911.327  -6535324.293
10 0 59601  56382.000000  0    1871609.782   2328865.650  -6213726.265
10 0 59601  56502.000000  0    2580589.988   2724814.742  -5783624.629
10 0 59601  56622.000000  0    3251200.409   3061409.206  -5252446.259
10 0 59601  56742.000000  0    3870665.509   3333539.745  -4629386.137
10 0 59601  56862.000000  0    4426993.188   3537418.685  -3925259.855
10 0 59601  56982.000000  0    4909212.215   3670635.781  -3152325.079
10 0 59601  57102.000000  0    5307594.585   3732187.007  -2324074.316
10 0 59601  57222.000000  0    5613858.821   3722476.461  -1455002.905
10 0 59601  57342.000000  0    5821349.026   3643289.011   -560354.330
10 0 59601  57462.000000  0    5925184.007   3497734.500    344150.784
10 0 59601  57582.000000  0    5922373.332   3290164.655   1242597.524
10 0 59601  57702.000000  0    5811895.300   3026063.916   2119165.375
10 0 59601  57822.000000  0    5594735.090   2711917.984   2958415.315
10 0 59601  57942.000000  0    5273882.550   2355062.700   3745570.542
10 0 59601  58062.000000  0    4854287.882   1963516.675   4466782.983
10 0 59601  58182.000000  0    4342778.293   1545803.082   5109378.312
10 0 59601  58302.000000  0    3747941.363   1110765.255   5662079.076
10 0 59601  58422.000000  0    3079970.625    667379.673   6115201.286
10 0 59601  58542.000000  0    2350482.310    224571.102   6460816.580
10 0 59601  58662.000000  0    1572309.393   -208965.015   6692884.250
10 0 59601  58782.000000  0     759273.216   -624932.124   6807352.633
10 0 59601  58902.000000  0     -74064.562  -1015590.765   6802225.478
10 0 59601  59022.000000  0    -912662.831  -1373901.757   6677593.641
10 0 59601  59142.000000  0   -1741271.692  -1693653.155   6435632.568
10 0 59601  59262.000000  0   -2544707.729  -1969567.384   6080565.567
10 0 59601  59382.000000  0   -3308130.708  -2197388.193   5618596.907
10 0 59601  59502.000000  0   -4017321.940  -2373948.239   5057811.424
10 0 59601  59622.000000  0   -4658954.392  -2497213.714   4408037.632
10 0 59601  59742.000000  0   -5220849.392  -2566304.680   3680679.289
10 0 59601  59862.000000  0   -5692214.709  -2581490.567   2888518.145
10 0 59601  59982.000000  0   -6063860.151  -2544161.994   2045490.777
10 0 59601  60102.000000  0   -6328386.008  -2456780.024   1166441.117
10 0 59601  60222.000000  0   -6480336.747  -2322801.316    266851.758
10 0 59601  60342.000000  0   -6516315.866  -2146581.787   -637436.115
10 0 59601  60462.000000  0   -6435060.610  -1933261.551  -1530511.415
10 0 59601  60582.000000  0   -6237471.608  -1688634.197  -2396682.106
10 0 59601  60702.000000  0   -5926599.220  -1419004.117  -3220757.390
10 0 59601  60822.000000  0   -5507587.484  -1131035.514  -3988317.800
10 0 59601  60942.000000  0   -4987577.833   -831596.998  -4685967.905
10 0 59601  61062.000000  0   -4375575.360   -527605.196  -5301567.035
10 0 59601  61182.000000  0   -3682280.788   -225871.822  -5824433.770
10 0 59601  61302.000000  0   -2919893.457     67042.789  -6245520.959
10 0 59601  61422.000000  0   -2101890.906    344966.327  -6557560.127
10 0 59601  61542.000000  0   -1242788.523    602238.328  -6755175.778
10 0 59601  61662.000000  0    -357883.667    833820.343  -6834967.990
10 0 59601  61782.000000  0     537011.055   1035391.267  -6795563.311
10 0 59601  61902.000000  0    1425842.241   1203424.725  -6637637.287
10 0 59601  62022.000000  0    2292598.158   1335249.882  -6363906.015
10 0 59601  62142.000000  0    3121591.996   1429093.791  -5979084.177
10 0 59601  62262.000000  0    3897741.966   1484104.008  -5489810.943
10 0 59601  62382.000000  0    4606843.965   1500351.786  -4904546.613
10 0 59601  62502.000000  0    5235835.337   1478816.060  -4233438.220
10 0 59601  62622.000000  0    5773042.191   1421347.676  -3488153.252
10 0 59601  62742.000000  0    6208405.050   1330614.277  -2681685.226
10 0 59601  62862.000000  0    6533679.256   1210026.998  -1828132.907
10 0 59601  62982.000000  0    6742603.815   1063650.407   -942454.477
10 0 59601  63102.000000  0    6831032.703    896096.771    -40202.194
10 0 59601  63222.000000  0    6797024.351    712408.231    862756.699
10 0 59601  63342.000000  0    6640888.894    517929.605   1750525.823
10 0 59601  63462.000000  0    6365190.597    318173.628   2607469.363
10 0 59601  63582.000000  0    5974702.513    118683.650   3418496.161
10 0 59601  63702.000000  0    5476317.720    -75103.666   4169332.423
10 0 59601  63822.000000  0    4878918.569   -257990.085   4846775.975
10 0 59601  63942.000000  0    4193209.391   -425141.311   5438930.727
10 0 59601  64062.000000  0    3431512.957   -572202.281   5935413.278
10 0 59601  64182.000000  0    2607540.561   -695398.421   6327530.091
10 0 59601  64302.000000  0    1736138.965   -791622.716   6608423.845
10 0 59601  64422.000000  0     833018.861   -858506.344   6773188.510
10 0 59601  64542.000000  0     -85531.671   -894471.699   6818949.497
10 0 59601  64662.000000  0   -1002940.962   -898766.709   6744909.313
10 0 59601  64782.000000  0   -1902651.367   -871480.278   6552359.901
10 0 59601  64902.000000  0   -2768416.334   -813537.844   6244661.107
10 0 59601  65022.000000  0   -3584592.888   -726677.619   5827186.956
10 0 59601  65142.000000  0   -4336427.195   -613408.087   5307238.718
10 0 59601  65262.000000  0   -5010327.236   -476947.716   4693923.625
10 0 59601  65382.000000  0   -5594116.145   -321147.288   3998000.027
10 0 59601  65502.000000  0   -6077260.895   -150396.594   3231691.703
10 0 59601  65622.000000  0   -6451071.638     30482.717   2408475.270
10 0 59601  65742.000000  0   -6708868.791    216356.319   1542842.131
10 0 59601  65862.000000  0   -6846111.287    401904.558    650038.378
10 0 59601  65982.000000  0   -6860482.463    581755.096   -254211.341
10 0 59601  66102.000000  0   -6751930.695    750617.967  -1153990.057
10 0 59601  66222.000000  0   -6522663.292    903418.984  -2033477.323
10 0 59601  66342.000000  0   -6177097.019   1035428.052  -2877233.670
10 0 59601  66462.000000  0   -5721765.252   1142380.290  -3670479.134
10 0 59601  66582.000000  0   -5165180.754   1220585.278  -4399354.669
10 0 59601  66702.000000  0   -4517663.560   1267022.602  -5051161.831
10 0 59601  66822.000000  0   -3791137.373   1279421.569  -5614577.859
10 0 59601  66942.000000  0   -2998900.686   1256323.616  -6079842.927
10 0 59601  67062.000000  0   -2155377.438   1197125.685  -6438918.397
10 0 59601  67182.000000  0   -1275851.778   1102105.781  -6685614.520
10 0 59601  67302.000000  0    -376192.031    972429.216  -6815685.460
10 0 59601  67422.000000  0     527429.701    810135.760  -6826893.354
10 0 59601  67542.000000  0    1418820.094    618108.383  -6719044.367
10 0 59601  67662.000000  0    2282049.466    400023.031  -6493992.994
10 0 59601  67782.000000  0    3101730.457    160280.824  -6155613.196
10 0 59601  67902.000000  0    3863288.856    -96076.435  -5709738.414
10 0 59601  68022.000000  0    4553220.544   -363467.200  -5164070.242
10 0 59601  68142.000000  0    5159333.807   -635884.874  -4528057.976
10 0 59601  68262.000000  0    5670972.265   -907025.461  -3812745.623
10 0 59601  68382.000000  0    6079211.627  -1170425.279  -3030589.145
10 0 59601  68502.000000  0    6377026.953  -1419606.402  -2195246.096
10 0 59601  68622.000000  0    6559426.210  -1648226.398  -1321339.995
10 0 59601  68742.000000  0    6623545.265  -1850228.453   -424203.196
10 0 59601  68862.000000  0    6568701.847  -2019988.251    480396.171
10 0 59601  68982.000000  0    6396406.359  -2152454.135   1376538.850
99
